STARLINK-33877          
1 63933U 25098H   26013.79963716  .00000462  00000+0  46496-4 0  9992
2 63933  70.0016  52.7145 0004215 272.9205  87.1471 14.98334855 38350
STARLINK-33895          
1 63934U 25098J   26013.80798431  .00001689  00000+0  14930-3 0  9994
2 63934  70.0030  52.7574 0003292 270.4295  89.6487 14.98332420 38359
STARLINK-34005          
1 63935U 25098K   26014.00002315  .00066496  00000+0  55321-2 0  9992
2 63935  70.0015  52.5153 0003297 268.3644 182.1535 14.98300386  5839
STARLINK-34027          
1 63936U 25098L   26013.52424889 -.00000385  00000+0 -24491-4 0  9996
2 63936  70.0016  53.3648 0003164 271.4307  88.6490 14.98337570 38294
STARLINK-34035          
1 63937U 25098M   26013.55347117  .00001267  00000+0  11400-3 0  9991
2 63937  70.0020  53.4751 0003092 269.1556  90.9249 14.98330112 38299
STARLINK-33988          
1 63938U 25098N   26013.83286600  .00002938  00000+0  25388-3 0  9998
2 63938  70.0019  52.8444 0003185 277.1983  82.8814 14.98331886 38338
STARLINK-34020          
1 63939U 25098P   26013.80380979  .00003199  00000+0  27570-3 0  9995
2 63939  70.0017  52.7392 0003125 270.9079  89.1722 14.98336490 38333
STARLINK-34021          
1 63940U 25098Q   26013.72037825 -.00006175  00000+0 -51012-3 0  9994
2 63940  70.0011  53.2452 0003658 273.9941  86.0800 14.98330450 38315
STARLINK-34004          
1 63941U 25098R   26013.81215818  .00001768  00000+0  15591-3 0  9998
2 63941  70.0019  52.7623 0003121 271.9022  88.1779 14.98333612 38334
STARLINK-34014          
1 63942U 25098S   26013.54914102  .00003307  00000+0  28472-3 0  9994
2 63942  70.0015  53.4585 0003188 268.3803  91.6991 14.98340950 38299
STARLINK-33985          
1 63943U 25098T   26013.79946975  .00002012  00000+0  17638-3 0  9999
2 63943  70.0016  52.7112 0003183 271.7210  88.3584 14.98333688 38330
STARLINK-33996          
1 63944U 25098U   26013.66670139 -.00029892  00000+0 -25070-2 0  9997
2 63944  70.0015  53.2628 0003279 274.7092 268.4192 14.98346825  5725
STARLINK-34036          
1 63945U 25098V   26013.50758530  .00002356  00000+0  20522-3 0  9995
2 63945  70.0019  53.7144 0003227 270.7820  89.2969 14.98328689 38282
STARLINK-34039          
1 63946U 25098W   26013.50340898  .00003373  00000+0  29036-3 0  9999
2 63946  70.0020  53.6993 0003063 267.6659  92.4149 14.98329889 38288
STARLINK-34034          
1 63947U 25098X   26013.50324474  .00002086  00000+0  18258-3 0  9996
2 63947  70.0021  53.6991 0003169 270.5896  89.4900 14.98326266 38288
STARLINK-33983          
1 63948U 25098Y   26013.48253405  .00004688  00000+0  40035-3 0  9997
2 63948  70.0019  53.6276 0003208 272.6615  87.4177 14.98334181 38287
