[{"OBJECT_NAME":"STARLINK-33877","OBJECT_ID":"2025-098H","EPOCH":"2026-01-13T19:11:28.650624","MEAN_MOTION":14.98334855,"ECCENTRICITY":0.00042157,"INCLINATION":70.0016,"RA_OF_ASC_NODE":52.7145,"ARG_OF_PERICENTER":272.9205,"MEAN_ANOMALY":87.1471,"EPHEMERIS_TYPE":0,"CLASSIFICATION_TYPE":"U","NORAD_CAT_ID":63933,"ELEMENT_SET_NO":999,"REV_AT_EPOCH":3835,"BSTAR":4.6495882e-5,"MEAN_MOTION_DOT":4.62e-6,"MEAN_MOTION_DDOT":0},{"OBJECT_NAME":"STARLINK-33895","OBJECT_ID":"2025-098J","EPOCH":"2026-01-13T19:23:29.844384","MEAN_MOTION":14.9833242,"ECCENTRICITY":0.00032925,"INCLINATION":70.003,"RA_OF_ASC_NODE":52.7574,"ARG_OF_PERICENTER":270.4295,"MEAN_ANOMALY":89.6487,"EPHEMERIS_TYPE":0,"CLASSIFICATION_TYPE":"U","NORAD_CAT_ID":63934,"ELEMENT_SET_NO":999,"REV_AT_EPOCH":3835,"BSTAR":0.00014929535,"MEAN_MOTION_DOT":1.689e-5,"MEAN_MOTION_DDOT":0},{"OBJECT_NAME":"STARLINK-34005","OBJECT_ID":"2025-098K","EPOCH":"2026-01-14T00:00:02.000160","MEAN_MOTION":14.98300386,"ECCENTRICITY":0.00032971,"INCLINATION":70.0015,"RA_OF_ASC_NODE":52.5153,"ARG_OF_PERICENTER":268.3644,"MEAN_ANOMALY":182.1535,"EPHEMERIS_TYPE":0,"CLASSIFICATION_TYPE":"U","NORAD_CAT_ID":63935,"ELEMENT_SET_NO":999,"REV_AT_EPOCH":583,"BSTAR":0.0055321342,"MEAN_MOTION_DOT":0.00066496,"MEAN_MOTION_DDOT":0},{"OBJECT_NAME":"STARLINK-34027","OBJECT_ID":"2025-098L","EPOCH":"2026-01-13T12:34:55.104096","MEAN_MOTION":14.9833757,"ECCENTRICITY":0.00031646,"INCLINATION":70.0016,"RA_OF_ASC_NODE":53.3648,"ARG_OF_PERICENTER":271.4307,"MEAN_ANOMALY":88.649,"EPHEMERIS_TYPE":0,"CLASSIFICATION_TYPE":"U","NORAD_CAT_ID":63936,"ELEMENT_SET_NO":999,"REV_AT_EPOCH":3829,"BSTAR":-2.4491311e-5,"MEAN_MOTION_DOT":-3.85e-6,"MEAN_MOTION_DDOT":0},{"OBJECT_NAME":"STARLINK-34035","OBJECT_ID":"2025-098M","EPOCH":"2026-01-13T13:16:59.909088","MEAN_MOTION":14.98330112,"ECCENTRICITY":0.00030925,"INCLINATION":70.002,"RA_OF_ASC_NODE":53.4751,"ARG_OF_PERICENTER":269.1556,"MEAN_ANOMALY":90.9249,"EPHEMERIS_TYPE":0,"CLASSIFICATION_TYPE":"U","NORAD_CAT_ID":63937,"ELEMENT_SET_NO":999,"REV_AT_EPOCH":3829,"BSTAR":0.00011399746,"MEAN_MOTION_DOT":1.267e-5,"MEAN_MOTION_DDOT":0},{"OBJECT_NAME":"STARLINK-33988","OBJECT_ID":"2025-098N","EPOCH":"2026-01-13T19:59:19.622400","MEAN_MOTION":14.98331886,"ECCENTRICITY":0.00031852,"INCLINATION":70.0019,"RA_OF_ASC_NODE":52.8444,"ARG_OF_PERICENTER":277.1983,"MEAN_ANOMALY":82.8814,"EPHEMERIS_TYPE":0,"CLASSIFICATION_TYPE":"U","NORAD_CAT_ID":63938,"ELEMENT_SET_NO":999,"REV_AT_EPOCH":3833,"BSTAR":0.00025387567,"MEAN_MOTION_DOT":2.938e-5,"MEAN_MOTION_DDOT":0},{"OBJECT_NAME":"STARLINK-34020","OBJECT_ID":"2025-098P","EPOCH":"2026-01-13T19:17:29.165856","MEAN_MOTION":14.9833649,"ECCENTRICITY":0.00031254,"INCLINATION":70.0017,"RA_OF_ASC_NODE":52.7392,"ARG_OF_PERICENTER":270.9079,"MEAN_ANOMALY":89.1722,"EPHEMERIS_TYPE":0,"CLASSIFICATION_TYPE":"U","NORAD_CAT_ID":63939,"ELEMENT_SET_NO":999,"REV_AT_EPOCH":3833,"BSTAR":0.00027570321,"MEAN_MOTION_DOT":3.199e-5,"MEAN_MOTION_DDOT":0},{"OBJECT_NAME":"STARLINK-34021","OBJECT_ID":"2025-098Q","EPOCH":"2026-01-13T17:17:20.680800","MEAN_MOTION":14.9833045,"ECCENTRICITY":0.00036581,"INCLINATION":70.0011,"RA_OF_ASC_NODE":53.2452,"ARG_OF_PERICENTER":273.9941,"MEAN_ANOMALY":86.08,"EPHEMERIS_TYPE":0,"CLASSIFICATION_TYPE":"U","NORAD_CAT_ID":63940,"ELEMENT_SET_NO":999,"REV_AT_EPOCH":3831,"BSTAR":-0.00051012075,"MEAN_MOTION_DOT":-6.175e-5,"MEAN_MOTION_DDOT":0},{"OBJECT_NAME":"STARLINK-34004","OBJECT_ID":"2025-098R","EPOCH":"2026-01-13T19:29:30.466752","MEAN_MOTION":14.98333612,"ECCENTRICITY":0.00031216,"INCLINATION":70.0019,"RA_OF_ASC_NODE":52.7623,"ARG_OF_PERICENTER":271.9022,"MEAN_ANOMALY":88.1779,"EPHEMERIS_TYPE":0,"CLASSIFICATION_TYPE":"U","NORAD_CAT_ID":63941,"ELEMENT_SET_NO":999,"REV_AT_EPOCH":3833,"BSTAR":0.00015591189,"MEAN_MOTION_DOT":1.768e-5,"MEAN_MOTION_DDOT":0},{"OBJECT_NAME":"STARLINK-34014","OBJECT_ID":"2025-098S","EPOCH":"2026-01-13T13:10:45.784128","MEAN_MOTION":14.9834095,"ECCENTRICITY":0.00031886,"INCLINATION":70.0015,"RA_OF_ASC_NODE":53.4585,"ARG_OF_PERICENTER":268.3803,"MEAN_ANOMALY":91.6991,"EPHEMERIS_TYPE":0,"CLASSIFICATION_TYPE":"U","NORAD_CAT_ID":63942,"ELEMENT_SET_NO":999,"REV_AT_EPOCH":3829,"BSTAR":0.00028471569,"MEAN_MOTION_DOT":3.307e-5,"MEAN_MOTION_DDOT":0},{"OBJECT_NAME":"STARLINK-33985","OBJECT_ID":"2025-098T","EPOCH":"2026-01-13T19:11:14.186400","MEAN_MOTION":14.98333688,"ECCENTRICITY":0.00031837,"INCLINATION":70.0016,"RA_OF_ASC_NODE":52.7112,"ARG_OF_PERICENTER":271.721,"MEAN_ANOMALY":88.3584,"EPHEMERIS_TYPE":0,"CLASSIFICATION_TYPE":"U","NORAD_CAT_ID":63943,"ELEMENT_SET_NO":999,"REV_AT_EPOCH":3833,"BSTAR":0.00017637963,"MEAN_MOTION_DOT":2.012e-5,"MEAN_MOTION_DDOT":0},{"OBJECT_NAME":"STARLINK-33996","OBJECT_ID":"2025-098U","EPOCH":"2026-01-13T16:00:03.000096","MEAN_MOTION":14.98346825,"ECCENTRICITY":0.00032799,"INCLINATION":70.0015,"RA_OF_ASC_NODE":53.2628,"ARG_OF_PERICENTER":274.7092,"MEAN_ANOMALY":268.4192,"EPHEMERIS_TYPE":0,"CLASSIFICATION_TYPE":"U","NORAD_CAT_ID":63944,"ELEMENT_SET_NO":999,"REV_AT_EPOCH":572,"BSTAR":-0.0025069905,"MEAN_MOTION_DOT":-0.00029892,"MEAN_MOTION_DDOT":0},{"OBJECT_NAME":"STARLINK-34036","OBJECT_ID":"2025-098V","EPOCH":"2026-01-13T12:10:55.369920","MEAN_MOTION":14.98328689,"ECCENTRICITY":0.00032271,"INCLINATION":70.0019,"RA_OF_ASC_NODE":53.7144,"ARG_OF_PERICENTER":270.782,"MEAN_ANOMALY":89.2969,"EPHEMERIS_TYPE":0,"CLASSIFICATION_TYPE":"U","NORAD_CAT_ID":63945,"ELEMENT_SET_NO":999,"REV_AT_EPOCH":3828,"BSTAR":0.0002052171,"MEAN_MOTION_DOT":2.356e-5,"MEAN_MOTION_DDOT":0},{"OBJECT_NAME":"STARLINK-34039","OBJECT_ID":"2025-098W","EPOCH":"2026-01-13T12:04:54.535872","MEAN_MOTION":14.98329889,"ECCENTRICITY":0.00030633,"INCLINATION":70.002,"RA_OF_ASC_NODE":53.6993,"ARG_OF_PERICENTER":267.6659,"MEAN_ANOMALY":92.4149,"EPHEMERIS_TYPE":0,"CLASSIFICATION_TYPE":"U","NORAD_CAT_ID":63946,"ELEMENT_SET_NO":999,"REV_AT_EPOCH":3828,"BSTAR":0.00029035746,"MEAN_MOTION_DOT":3.373e-5,"MEAN_MOTION_DDOT":0},{"OBJECT_NAME":"STARLINK-34034","OBJECT_ID":"2025-098X","EPOCH":"2026-01-13T12:04:40.345536","MEAN_MOTION":14.98326266,"ECCENTRICITY":0.00031693,"INCLINATION":70.0021,"RA_OF_ASC_NODE":53.6991,"ARG_OF_PERICENTER":270.5896,"MEAN_ANOMALY":89.49,"EPHEMERIS_TYPE":0,"CLASSIFICATION_TYPE":"U","NORAD_CAT_ID":63947,"ELEMENT_SET_NO":999,"REV_AT_EPOCH":3828,"BSTAR":0.00018258256,"MEAN_MOTION_DOT":2.086e-5,"MEAN_MOTION_DDOT":0},{"OBJECT_NAME":"STARLINK-33983","OBJECT_ID":"2025-098Y","EPOCH":"2026-01-13T11:34:50.941920","MEAN_MOTION":14.98334181,"ECCENTRICITY":0.0003208,"INCLINATION":70.0019,"RA_OF_ASC_NODE":53.6276,"ARG_OF_PERICENTER":272.6615,"MEAN_ANOMALY":87.4177,"EPHEMERIS_TYPE":0,"CLASSIFICATION_TYPE":"U","NORAD_CAT_ID":63948,"ELEMENT_SET_NO":999,"REV_AT_EPOCH":3828,"BSTAR":0.00040035,"MEAN_MOTION_DOT":4.688e-5,"MEAN_MOTION_DDOT":0}]
